ONEWEB-0144             
1 47290U 20100AJ  25271.87325880 -.00000023  00000+0 -99027-4 0  9990
2 47290  87.8925  42.5496 0001851 105.5161 254.6172 13.12445615230292
ONEWEB-0145             
1 47291U 20100AK  25271.92029027 -.00000078  00000+0 -25177-3 0  9995
2 47291  87.8930  42.5718 0001669 101.2471 258.8845 13.12444091230492
ONEWEB-0146             
1 47292U 20100AL  25272.29823952 -.00000005  00000+0 -48022-4 0  9991
2 47292  87.8932  42.4836 0001385  90.2877 269.8410 13.12440301230453
ONEWEB-0147             
1 47293U 20100AM  25271.88299109  .00000321  00000+0  85618-3 0  9997
2 47293  87.8934  42.5444 0001494 105.5101 254.6192 13.12443542230294
ONEWEB-0115             
1 48042U 21025A   25272.19127403  .00000388  00000+0  10276-2 0  9999
2 48042  87.9052  12.0675 0001690  96.2803 263.8518 13.13468815219337
ONEWEB-0152             
1 48043U 21025B   25272.28098372  .00000307  00000+0  80449-3 0  9993
2 48043  87.9047  12.0630 0001643 100.6672 259.4643 13.13472739219302
ONEWEB-0153             
1 48044U 21025C   25271.72573868  .00000352  00000+0  92867-3 0  9997
2 48044  87.9052  12.1740 0001765 100.0060 260.1268 13.13472816219221
ONEWEB-0154             
1 48045U 21025D   25272.25560252  .00000212  00000+0  54676-3 0  9991
2 48045  87.9050  12.0652 0001673  99.6627 260.4692 13.13470437219255
